ATLAS CENTAUR R/B       
1 06155U 72065B   26054.30153926  .00001360  00000+0  18832-3 0  9997
2 06155  35.0024  30.0684 0034411 249.4093 110.2915 14.77640693839138
SL-8 R/B                
1 08459U 75112B   26054.38249589  .00000160  00000+0  61345-4 0  9996
2 08459  74.0599  45.2307 0014817 144.0237 216.1918 14.38194734629813
SL-3 R/B                
1 10114U 77057B   26054.60218022  .00013807  00000+0  29394-3 0  9999
2 10114  97.5756 225.9091 0006861 342.1494  17.9512 15.45051521666152
SEASAT 1                
1 10967U 78064A   26054.38492290  .00000227  00000+0  10204-3 0  9992
2 10967 108.0143  95.4810 0001944 291.2001  68.8937 14.46148188504445
SL-14 R/B               
1 11267U 79011B   26054.42863290  .00000525  00000+0  49237-4 0  9996
2 11267  82.5232 110.1052 0017599 104.1874 256.1302 14.91889876526651
SL-8 R/B                
1 11574U 79089B   26054.45742503  .00000238  00000+0  80073-4 0  9992
2 11574  74.0684 117.3907 0017027 291.5700  68.3642 14.42341203434057
SL-14 R/B               
1 11672U 80005B   26054.23093439  .00000615  00000+0  59704-4 0  9990
2 11672  82.5168 320.9488 0014892 206.7519 153.2934 14.90910939474330
SL-8 R/B                
1 12139U 81003B   26054.62668190  .00017262  00000+0  45089-3 0  9999
2 12139  82.9394 303.0224 0262683 227.5394 130.3367 15.10406856312551
SL-3 R/B                
1 12465U 81046B   26054.57123509  .00014430  00000+0  33979-3 0  9991
2 12465  81.2322 306.6912 0020601  69.2552 291.0895 15.41583946436253
SL-3 R/B                
1 12904U 81103B   26054.56496026  .00006377  00000+0  28435-3 0  9991
2 12904  81.1568 230.0005 0012870 337.1425  22.9232 15.21184615971089
SL-3 R/B                
1 13068U 82013B   26054.57904330  .00005223  00000+0  22726-3 0  9993
2 13068  81.1760 177.3031 0021948 225.7818 134.1612 15.21847398402206
SL-3 R/B                
1 13154U 82039B   26054.54260582  .00002543  00000+0  15355-3 0  9990
2 13154  81.1590 232.2707 0029996  10.6557 349.5297 15.09989948379507
